{
    "links": {
        "self": "http://www.neowsapp.com/rest/v1/neo/54049785?api_key=iIulBulltgU6a56xZRHN4H3l9WmuAYTsLGpBGhQ2"
    },
    "id": "54049785",
    "neo_reference_id": "54049785",
    "name": "(2020 OO4)",
    "designation": "2020 OO4",
    "nasa_jpl_url": "http://ssd.jpl.nasa.gov/sbdb.cgi?sstr=54049785",
    "absolute_magnitude_h": 24.342,
    "estimated_diameter": {
        "kilometers": {
            "estimated_diameter_min": 0.0359877733,
            "estimated_diameter_max": 0.0804711076
        },
        "meters": {
            "estimated_diameter_min": 35.9877733471,
            "estimated_diameter_max": 80.4711075631
        },
        "miles": {
            "estimated_diameter_min": 0.0223617587,
            "estimated_diameter_max": 0.0500024126
        },
        "feet": {
            "estimated_diameter_min": 118.0701263083,
            "estimated_diameter_max": 264.0128285372
        }
    },
    "is_potentially_hazardous_asteroid": false,
    "close_approach_data": [
        {
            "close_approach_date": "2020-07-16",
            "close_approach_date_full": "2020-Jul-16 10:02",
            "epoch_date_close_approach": 1594893720000,
            "relative_velocity": {
                "kilometers_per_second": "7.9652669023",
                "kilometers_per_hour": "28674.9608484313",
                "miles_per_hour": "17817.5055338489"
            },
            "miss_distance": {
                "astronomical": "0.1012211946",
                "lunar": "39.3750446994",
                "kilometers": "15142475.111015502",
                "miles": "9409097.7283258476"
            },
            "orbiting_body": "Earth"
        },
        {
            "close_approach_date": "2020-10-09",
            "close_approach_date_full": "2020-Oct-09 15:07",
            "epoch_date_close_approach": 1602256020000,
            "relative_velocity": {
                "kilometers_per_second": "11.9169989921",
                "kilometers_per_hour": "42901.196371731",
                "miles_per_hour": "26657.1350455347"
            },
            "miss_distance": {
                "astronomical": "0.0669221424",
                "lunar": "26.0327133936",
                "kilometers": "10011409.958876688",
                "miles": "6220801.6860387744"
            },
            "orbiting_body": "Mars"
        }
    ],
    "orbital_data": {
        "orbit_id": "1",
        "orbit_determination_date": "2020-07-26 13:12:05",
        "first_observation_date": "2020-07-23",
        "last_observation_date": "2020-07-26",
        "data_arc_in_days": 3,
        "observations_used": 9,
        "orbit_uncertainty": "9",
        "minimum_orbit_intersection": ".0819569",
        "jupiter_tisserand_invariant": "3.056",
        "epoch_osculation": "2459054.5",
        "eccentricity": ".6020936382323625",
        "semi_major_axis": "2.740372066377923",
        "inclination": "3.177567184463595",
        "ascending_node_longitude": "93.59005436065966",
        "orbital_period": "1656.962672119773",
        "perihelion_distance": "1.090411478822102",
        "perihelion_argument": "215.747822479661",
        "aphelion_distance": "4.390332653933744",
        "perihelion_time": "2459058.338255415778",
        "mean_anomaly": "359.1660814254117",
        "mean_motion": ".2172650030428552",
        "equinox": "J2000",
        "orbit_class": {
            "orbit_class_type": "AMO",
            "orbit_class_description": "Near-Earth asteroid orbits similar to that of 1221 Amor",
            "orbit_class_range": "1.017 AU < q (perihelion) < 1.3 AU"
        }
    },
    "is_sentry_object": false
}